start=new Date('2022-12-25T00:00:00.000Z').valueOf();
sats=[{"INCLINATION":"53.2173","EPOCH":"2022-12-24T19:13:54.583680","REV_AT_EPOCH":"1492","COUNTRY_CODE":"US","FILE":"3721442","MEAN_MOTION_DOT":"0.00000100","PERIAPSIS":"538.432","BSTAR":"0.00002436200000","DECAY_DATE":null,"RA_OF_ASC_NODE":"180.1927","MEAN_MOTION_DDOT":"0.0000000000000","TIME_SYSTEM":"UTC","RCS_SIZE":"LARGE","APOAPSIS":"541.085","SEMIMAJOR_AXIS":"6917.894","MEAN_ANOMALY":"314.8779","CENTER_NAME":"EARTH","MEAN_ELEMENT_THEORY":"SGP4","PERIOD":"95.438","LAUNCH_DATE":"2022-09-24","NORAD_CAT_ID":"53899","MEAN_MOTION":"15.08835697","TLE_LINE1":"1 53899U 22119P   22358.80132620  .00000100  00000-0  24362-4 0  9993","SITE":"AFETR","ELEMENT_SET_NO":"999","OBJECT_ID":"2022-119P","EPHEMERIS_TYPE":"0","GP_ID":"221383305","OBJECT_TYPE":"PAYLOAD","ECCENTRICITY":"0.00019170","TLE_LINE2":"2 53899  53.2173 180.1927 0001917  45.2368 314.8779 15.08835697 14928","OBJECT_NAME":"STARLINK-5042","REF_FRAME":"TEME","ARG_OF_PERICENTER":"45.2368","CLASSIFICATION_TYPE":"U"},{"ELEMENT_SET_NO":"999","SITE":"AFETR","EPHEMERIS_TYPE":"0","OBJECT_ID":"2022-119Q","GP_ID":"221382272","OBJECT_TYPE":"PAYLOAD","ECCENTRICITY":"0.00015060","TLE_LINE2":"2 53900  53.2168 180.1247 0001506  77.0784 283.0377 15.08837152 14928","OBJECT_NAME":"STARLINK-5045","ARG_OF_PERICENTER":"77.0784","REF_FRAME":"TEME","CLASSIFICATION_TYPE":"U","MEAN_ELEMENT_THEORY":"SGP4","PERIOD":"95.438","NORAD_CAT_ID":"53900","LAUNCH_DATE":"2022-09-24","MEAN_MOTION":"15.08837152","TLE_LINE1":"1 53900U 22119Q   22358.79028111  .00001110  00000-0  87846-4 0  9991","RA_OF_ASC_NODE":"180.1247","MEAN_MOTION_DDOT":"0.0000000000000","TIME_SYSTEM":"UTC","RCS_SIZE":"LARGE","APOAPSIS":"540.796","MEAN_ANOMALY":"283.0377","SEMIMAJOR_AXIS":"6917.889","CENTER_NAME":"EARTH","INCLINATION":"53.2168","EPOCH":"2022-12-24T18:58:00.287904","REV_AT_EPOCH":"1492","COUNTRY_CODE":"US","FILE":"3721442","MEAN_MOTION_DOT":"0.00001110","PERIAPSIS":"538.712","DECAY_DATE":null,"BSTAR":"0.00008784600000"},{"MEAN_ANOMALY":"306.7014","SEMIMAJOR_AXIS":"6917.885","CENTER_NAME":"EARTH","APOAPSIS":"541.115","RCS_SIZE":"LARGE","MEAN_MOTION_DDOT":"0.0000000000000","TIME_SYSTEM":"UTC","RA_OF_ASC_NODE":"180.5206","PERIAPSIS":"538.386","DECAY_DATE":null,"BSTAR":"0.00007555000000","MEAN_MOTION_DOT":"0.00000914","COUNTRY_CODE":"US","FILE":"3721442","REV_AT_EPOCH":"1491","INCLINATION":"53.2170","EPOCH":"2022-12-24T17:43:50.011392","CLASSIFICATION_TYPE":"U","TLE_LINE2":"2 53901  53.2170 180.5206 0001973  53.4160 306.7014 15.08838343 14918","OBJECT_NAME":"STARLINK-5024","REF_FRAME":"TEME","ARG_OF_PERICENTER":"53.4160","ECCENTRICITY":"0.00019730","OBJECT_TYPE":"PAYLOAD","GP_ID":"221382478","OBJECT_ID":"2022-119R","EPHEMERIS_TYPE":"0","SITE":"AFETR","ELEMENT_SET_NO":"999","TLE_LINE1":"1 53901U 22119R   22358.73877328  .00000914  00000-0  75550-4 0  9998","MEAN_MOTION":"15.08838343","LAUNCH_DATE":"2022-09-24","NORAD_CAT_ID":"53901","PERIOD":"95.438","MEAN_ELEMENT_THEORY":"SGP4"},{"NORAD_CAT_ID":"53902","LAUNCH_DATE":"2022-09-24","MEAN_ELEMENT_THEORY":"SGP4","PERIOD":"91.533","TLE_LINE1":"1 53902U 22119S   22358.74536278 -.00003343  00000-0 -19260-4 0  9993","MEAN_MOTION":"15.73210968","GP_ID":"221383099","ELEMENT_SET_NO":"999","SITE":"AFETR","EPHEMERIS_TYPE":"0","OBJECT_ID":"2022-119S","TLE_LINE2":"2 53902  53.2148 163.3980 0008836 289.4191  70.5874 15.73210968 15158","OBJECT_NAME":"STARLINK-5021","REF_FRAME":"TEME","ARG_OF_PERICENTER":"289.4191","CLASSIFICATION_TYPE":"U","OBJECT_TYPE":"PAYLOAD","ECCENTRICITY":"0.00088360","REV_AT_EPOCH":"1515","INCLINATION":"53.2148","EPOCH":"2022-12-24T17:53:19.344192","PERIAPSIS":"343.784","DECAY_DATE":null,"BSTAR":"-0.00001926000000","COUNTRY_CODE":"US","FILE":"3721442","MEAN_MOTION_DOT":"-0.00003343","APOAPSIS":"355.674","RCS_SIZE":"LARGE","SEMIMAJOR_AXIS":"6727.864","MEAN_ANOMALY":"70.5874","CENTER_NAME":"EARTH","RA_OF_ASC_NODE":"163.3980","MEAN_MOTION_DDOT":"0.0000000000000","TIME_SYSTEM":"UTC"},{"ECCENTRICITY":"0.00021540","OBJECT_TYPE":"PAYLOAD","CLASSIFICATION_TYPE":"U","REF_FRAME":"TEME","ARG_OF_PERICENTER":"47.2141","TLE_LINE2":"2 53903  53.2166 179.8579 0002154  47.2141 312.9032 15.08843493 14934","OBJECT_NAME":"STARLINK-5022","EPHEMERIS_TYPE":"0","OBJECT_ID":"2022-119T","ELEMENT_SET_NO":"999","SITE":"AFETR","GP_ID":"221382893","MEAN_MOTION":"15.08843493","TLE_LINE1":"1 53903U 22119T   22358.86019055  .00000834  00000-0  70501-4 0  9991","PERIOD":"95.437","MEAN_ELEMENT_THEORY":"SGP4","LAUNCH_DATE":"2022-09-24","NORAD_CAT_ID":"53903","TIME_SYSTEM":"UTC","MEAN_MOTION_DDOT":"0.0000000000000","RA_OF_ASC_NODE":"179.8579","MEAN_ANOMALY":"312.9032","SEMIMAJOR_AXIS":"6917.870","CENTER_NAME":"EARTH","APOAPSIS":"541.225","RCS_SIZE":"LARGE","MEAN_MOTION_DOT":"0.00000834","FILE":"3721442","COUNTRY_CODE":"US","BSTAR":"0.00007050100000","DECAY_DATE":null,"PERIAPSIS":"538.245","EPOCH":"2022-12-24T20:38:40.463520","INCLINATION":"53.2166","REV_AT_EPOCH":"1493"},{"MEAN_MOTION":"15.08834369","TLE_LINE1":"1 53904U 22119U   22358.78659600  .00000279  00000-0  35661-4 0  9990","MEAN_ELEMENT_THEORY":"SGP4","PERIOD":"95.438","LAUNCH_DATE":"2022-09-24","NORAD_CAT_ID":"53904","OBJECT_TYPE":"PAYLOAD","ECCENTRICITY":"0.00019530","TLE_LINE2":"2 53904  53.2160 180.1039 0001953  51.2903 308.8264 15.08834369 14924","OBJECT_NAME":"STARLINK-4787","ARG_OF_PERICENTER":"51.2903","REF_FRAME":"TEME","CLASSIFICATION_TYPE":"U","SITE":"AFETR","ELEMENT_SET_NO":"999","EPHEMERIS_TYPE":"0","OBJECT_ID":"2022-119U","GP_ID":"221381859","COUNTRY_CODE":"US","FILE":"3721442","MEAN_MOTION_DOT":"0.00000279","PERIAPSIS":"538.412","DECAY_DATE":null,"BSTAR":"0.00003566100000","INCLINATION":"53.2160","EPOCH":"2022-12-24T18:52:41.894400","REV_AT_EPOCH":"1492","RA_OF_ASC_NODE":"180.1039","MEAN_MOTION_DDOT":"0.0000000000000","TIME_SYSTEM":"UTC","APOAPSIS":"541.114","RCS_SIZE":"LARGE","SEMIMAJOR_AXIS":"6917.898","CENTER_NAME":"EARTH","MEAN_ANOMALY":"308.8264"},{"LAUNCH_DATE":"2022-09-24","NORAD_CAT_ID":"53905","MEAN_ELEMENT_THEORY":"SGP4","PERIOD":"95.440","TLE_LINE1":"1 53905U 22119V   22358.91667824  .00042470  00000-0  26729-2 0  9995","MEAN_MOTION":"15.08807612","GP_ID":"221382066","ELEMENT_SET_NO":"999","SITE":"AFETR","EPHEMERIS_TYPE":"0","OBJECT_ID":"2022-119V","OBJECT_NAME":"STARLINK-5003","TLE_LINE2":"2 53905  53.2147 170.1402 0001433  58.8945 342.8056 15.08807612  1301","REF_FRAME":"TEME","ARG_OF_PERICENTER":"58.8945","CLASSIFICATION_TYPE":"U","OBJECT_TYPE":"PAYLOAD","ECCENTRICITY":"0.00014330","REV_AT_EPOCH":"130","INCLINATION":"53.2147","EPOCH":"2022-12-24T22:00:00.999936","PERIAPSIS":"538.853","DECAY_DATE":null,"BSTAR":"0.00267290000000","COUNTRY_CODE":"US","FILE":"3721442","MEAN_MOTION_DOT":"0.00042470","APOAPSIS":"540.836","RCS_SIZE":"LARGE","SEMIMAJOR_AXIS":"6917.979","CENTER_NAME":"EARTH","MEAN_ANOMALY":"342.8056","RA_OF_ASC_NODE":"170.1402","MEAN_MOTION_DDOT":"0.0000000000000","TIME_SYSTEM":"UTC"},{"REV_AT_EPOCH":"130","INCLINATION":"53.2162","EPOCH":"2022-12-24T22:00:00.999936","PERIAPSIS":"526.540","BSTAR":"-0.05555100000000","DECAY_DATE":null,"MEAN_MOTION_DOT":"-0.00913877","COUNTRY_CODE":"US","FILE":"3721442","SEMIMAJOR_AXIS":"6905.748","MEAN_ANOMALY":"179.3842","CENTER_NAME":"EARTH","RCS_SIZE":"LARGE","APOAPSIS":"528.686","MEAN_MOTION_DDOT":"0.0000000000000","TIME_SYSTEM":"UTC","RA_OF_ASC_NODE":"169.6262","LAUNCH_DATE":"2022-09-24","NORAD_CAT_ID":"53906","PERIOD":"95.187","MEAN_ELEMENT_THEORY":"SGP4","TLE_LINE1":"1 53906U 22119W   22358.91667824 -.00913877  00000-0 -55551-1 0  9990","MEAN_MOTION":"15.12817917","GP_ID":"221382686","OBJECT_ID":"2022-119W","EPHEMERIS_TYPE":"0","ELEMENT_SET_NO":"999","SITE":"AFETR","CLASSIFICATION_TYPE":"U","OBJECT_NAME":"STARLINK-5054","TLE_LINE2":"2 53906  53.2162 169.6262 0001554 128.0289 179.3842 15.12817917  1301","ARG_OF_PERICENTER":"128.0289","REF_FRAME":"TEME","ECCENTRICITY":"0.00015540","OBJECT_TYPE":"PAYLOAD"},{"EPOCH":"2022-12-24T18:47:22.573824","INCLINATION":"53.2185","REV_AT_EPOCH":"1492","MEAN_MOTION_DOT":"0.00002471","FILE":"3721442","COUNTRY_CODE":"US","BSTAR":"0.00017323000000","DECAY_DATE":null,"PERIAPSIS":"538.557","TIME_SYSTEM":"UTC","MEAN_MOTION_DDOT":"0.0000000000000","RA_OF_ASC_NODE":"180.0774","CENTER_NAME":"EARTH","SEMIMAJOR_AXIS":"6917.844","MEAN_ANOMALY":"303.9777","APOAPSIS":"540.862","RCS_SIZE":"LARGE","PERIOD":"95.437","MEAN_ELEMENT_THEORY":"SGP4","LAUNCH_DATE":"2022-09-24","NORAD_CAT_ID":"53907","MEAN_MOTION":"15.08851848","TLE_LINE1":"1 53907U 22119X   22358.78290016  .00002471  00000-0  17323-3 0  9995","EPHEMERIS_TYPE":"0","OBJECT_ID":"2022-119X","SITE":"AFETR","ELEMENT_SET_NO":"999","GP_ID":"221383306","ECCENTRICITY":"0.00016660","OBJECT_TYPE":"PAYLOAD","CLASSIFICATION_TYPE":"U","ARG_OF_PERICENTER":"56.1373","REF_FRAME":"TEME","TLE_LINE2":"2 53907  53.2185 180.0774 0001666  56.1373 303.9777 15.08851848 14921","OBJECT_NAME":"STARLINK-5063"},{"APOAPSIS":"540.694","RCS_SIZE":"LARGE","CENTER_NAME":"EARTH","SEMIMAJOR_AXIS":"6918.001","MEAN_ANOMALY":"0.9908","RA_OF_ASC_NODE":"170.0595","MEAN_MOTION_DDOT":"0.0000000000000","TIME_SYSTEM":"UTC","PERIAPSIS":"539.038","BSTAR":"0.00292410000000","DECAY_DATE":null,"COUNTRY_CODE":"US","FILE":"3721442","MEAN_MOTION_DOT":"0.00046506","REV_AT_EPOCH":"130","INCLINATION":"53.2154","EPOCH":"2022-12-24T22:00:00.999936","TLE_LINE2":"2 53908  53.2154 170.0595 0001197  80.7420   0.9908 15.08800657  1303","OBJECT_NAME":"STARLINK-5057","ARG_OF_PERICENTER":"80.7420","REF_FRAME":"TEME","CLASSIFICATION_TYPE":"U","OBJECT_TYPE":"PAYLOAD","ECCENTRICITY":"0.00011970","GP_ID":"221382273","SITE":"AFETR","ELEMENT_SET_NO":"999","OBJECT_ID":"2022-119Y","EPHEMERIS_TYPE":"0","TLE_LINE1":"1 53908U 22119Y   22358.91667824  .00046506  00000-0  29241-2 0  9994","MEAN_MOTION":"15.08800657","NORAD_CAT_ID":"53908","LAUNCH_DATE":"2022-09-24","MEAN_ELEMENT_THEORY":"SGP4","PERIOD":"95.440"}];
